{
  "type": "FeatureCollection",
  "features": [
    {
      "type": "Feature",
      "properties": {
        "norad_id": 34036,
        "name": "COSMOS 2251 DEB",
        "group": "cosmos-2251-debris",
        "lat": 5.84609022390273,
        "lon": -59.52338536502553,
        "alt_km": 575.0270486651725,
        "timestamp": "2025-12-26T03:50:12.487682+00:00",
        "meta_object_name": "COSMOS 2251 DEB",
        "meta_object_id": "1993-036HX",
        "meta_epoch": "2025-12-25T17:26:00.243744",
        "meta_mean_motion": 14.96010186,
        "meta_eccentricity": 0.0009528,
        "meta_inclination": 74.0198,
        "meta_ra_of_asc_node": 123.034,
        "meta_arg_of_pericenter": 149.1238,
        "meta_mean_anomaly": 211.0509,
        "meta_ephemeris_type": 0,
        "meta_classification_type": "U",
        "meta_norad_cat_id": 34036,
        "meta_element_set_no": 999,
        "meta_rev_at_epoch": 88764,
        "meta_bstar": 0.0040265,
        "meta_mean_motion_dot": 0.00045487,
        "meta_mean_motion_ddot": 0,
        "tle_line1": "1 34036U 93036HX  25359.72639171  .00045487  00000+0  40265-2 0  9993",
        "tle_line2": "2 34036  74.0198 123.0340 0009528 149.1238 211.0509 14.96010186887649"
      },
      "geometry": {
        "type": "Point",
        "coordinates": [
          -59.52338536502553,
          5.84609022390273
        ]
      }
    },
    {
      "type": "Feature",
      "properties": {
        "norad_id": 34037,
        "name": "COSMOS 2251 DEB",
        "group": "cosmos-2251-debris",
        "lat": 1.024818939827415,
        "lon": -154.4131056949171,
        "alt_km": 789.2698083796777,
        "timestamp": "2025-12-26T03:50:12.487693+00:00",
        "meta_object_name": "COSMOS 2251 DEB",
        "meta_object_id": "1993-036HY",
        "meta_epoch": "2025-12-25T18:38:37.857120",
        "meta_mean_motion": 14.34696999,
        "meta_eccentricity": 0.0051817,
        "meta_inclination": 74.0509,
        "meta_ra_of_asc_node": 26.5808,
        "meta_arg_of_pericenter": 72.5186,
        "meta_mean_anomaly": 288.162,
        "meta_ephemeris_type": 0,
        "meta_classification_type": "U",
        "meta_norad_cat_id": 34037,
        "meta_element_set_no": 999,
        "meta_rev_at_epoch": 87904,
        "meta_bstar": 0.00043275,
        "meta_mean_motion_dot": 1.218e-05,
        "meta_mean_motion_ddot": 0,
        "tle_line1": "1 34037U 93036HY  25359.77682705  .00001218  00000+0  43275-3 0  9999",
        "tle_line2": "2 34037  74.0509  26.5808 0051817  72.5186 288.1620 14.34696999879049"
      },
      "geometry": {
        "type": "Point",
        "coordinates": [
          -154.4131056949171,
          1.024818939827415
        ]
      }
    },
    {
      "type": "Feature",
      "properties": {
        "norad_id": 34040,
        "name": "COSMOS 2251 DEB",
        "group": "cosmos-2251-debris",
        "lat": 63.15437442323825,
        "lon": -170.960918766932,
        "alt_km": 1108.6526044110624,
        "timestamp": "2025-12-26T03:50:12.487703+00:00",
        "meta_object_name": "COSMOS 2251 DEB",
        "meta_object_id": "1993-036JB",
        "meta_epoch": "2025-12-25T13:16:19.371072",
        "meta_mean_motion": 13.68397011,
        "meta_eccentricity": 0.034346,
        "meta_inclination": 73.9555,
        "meta_ra_of_asc_node": 44.6903,
        "meta_arg_of_pericenter": 355.4682,
        "meta_mean_anomaly": 4.3342,
        "meta_ephemeris_type": 0,
        "meta_classification_type": "U",
        "meta_norad_cat_id": 34040,
        "meta_element_set_no": 999,
        "meta_rev_at_epoch": 83775,
        "meta_bstar": 0.00082663,
        "meta_mean_motion_dot": 1.044e-05,
        "meta_mean_motion_ddot": 0,
        "tle_line1": "1 34040U 93036JB  25359.55300198  .00001044  00000+0  82663-3 0  9993",
        "tle_line2": "2 34040  73.9555  44.6903 0343460 355.4682   4.3342 13.68397011837751"
      },
      "geometry": {
        "type": "Point",
        "coordinates": [
          -170.960918766932,
          63.15437442323825
        ]
      }
    },
    {
      "type": "Feature",
      "properties": {
        "norad_id": 34045,
        "name": "COSMOS 2251 DEB",
        "group": "cosmos-2251-debris",
        "lat": -13.01420486108035,
        "lon": 110.06907393332303,
        "alt_km": 800.8829239182751,
        "timestamp": "2025-12-26T03:50:12.487714+00:00",
        "meta_object_name": "COSMOS 2251 DEB",
        "meta_object_id": "1993-036JG",
        "meta_epoch": "2025-12-25T20:30:03.636864",
        "meta_mean_motion": 14.34076185,
        "meta_eccentricity": 0.0026208,
        "meta_inclination": 74.0396,
        "meta_ra_of_asc_node": 286.8355,
        "meta_arg_of_pericenter": 6.8117,
        "meta_mean_anomaly": 49.2791,
        "meta_ephemeris_type": 0,
        "meta_classification_type": "U",
        "meta_norad_cat_id": 34045,
        "meta_element_set_no": 999,
        "meta_rev_at_epoch": 88221,
        "meta_bstar": 0.00010731,
        "meta_mean_motion_dot": 2.75e-06,
        "meta_mean_motion_ddot": 0,
        "tle_line1": "1 34045U 93036JG  25359.85420876  .00000275  00000+0  10731-3 0  9999",
        "tle_line2": "2 34045  74.0396 286.8355 0026208   6.8117  49.2791 14.34076185882217"
      },
      "geometry": {
        "type": "Point",
        "coordinates": [
          110.06907393332303,
          -13.01420486108035
        ]
      }
    },
    {
      "type": "Feature",
      "properties": {
        "norad_id": 34046,
        "name": "COSMOS 2251 DEB",
        "group": "cosmos-2251-debris",
        "lat": 59.209686971881275,
        "lon": 14.116022660279972,
        "alt_km": 677.7248077026597,
        "timestamp": "2025-12-26T03:50:12.487725+00:00",
        "meta_object_name": "COSMOS 2251 DEB",
        "meta_object_id": "1993-036JH",
        "meta_epoch": "2025-12-24T23:29:04.134912",
        "meta_mean_motion": 14.46571468,
        "meta_eccentricity": 0.00745437,
        "meta_inclination": 74.0399,
        "meta_ra_of_asc_node": 347.619,
        "meta_arg_of_pericenter": 67.423,
        "meta_mean_anomaly": 326.3927,
        "meta_ephemeris_type": 0,
        "meta_classification_type": "U",
        "meta_norad_cat_id": 34046,
        "meta_element_set_no": 999,
        "meta_rev_at_epoch": 88003,
        "meta_bstar": 0.0013905067,
        "meta_mean_motion_dot": 5.165e-05,
        "meta_mean_motion_ddot": 0,
        "tle_line1": "1 34046U 93036JH  25358.97852008  .00005165  00000+0  13905-2 0  9996",
        "tle_line2": "2 34046  74.0399 347.6190 0074543  67.4230 326.3927 14.46571468880033"
      },
      "geometry": {
        "type": "Point",
        "coordinates": [
          14.116022660279972,
          59.209686971881275
        ]
      }
    },
    {
      "type": "Feature",
      "properties": {
        "norad_id": 34050,
        "name": "COSMOS 2251 DEB",
        "group": "cosmos-2251-debris",
        "lat": 27.955404103969755,
        "lon": -4.261330257858425,
        "alt_km": 756.6983180075349,
        "timestamp": "2025-12-26T03:50:12.487735+00:00",
        "meta_object_name": "COSMOS 2251 DEB",
        "meta_object_id": "1993-036JM",
        "meta_epoch": "2025-12-25T11:04:48.351072",
        "meta_mean_motion": 13.96210406,
        "meta_eccentricity": 0.0214837,
        "meta_inclination": 74.0883,
        "meta_ra_of_asc_node": 348.2285,
        "meta_arg_of_pericenter": 49.3018,
        "meta_mean_anomaly": 72.7253,
        "meta_ephemeris_type": 0,
        "meta_classification_type": "U",
        "meta_norad_cat_id": 34050,
        "meta_element_set_no": 999,
        "meta_rev_at_epoch": 85609,
        "meta_bstar": 0.0007946,
        "meta_mean_motion_dot": 1.304e-05,
        "meta_mean_motion_ddot": 0,
        "tle_line1": "1 34050U 93036JM  25359.46167073  .00001304  00000+0  79460-3 0  9997",
        "tle_line2": "2 34050  74.0883 348.2285 0214837  49.3018  72.7253 13.96210406856092"
      },
      "geometry": {
        "type": "Point",
        "coordinates": [
          -4.261330257858425,
          27.955404103969755
        ]
      }
    },
    {
      "type": "Feature",
      "properties": {
        "norad_id": 34053,
        "name": "COSMOS 2251 DEB",
        "group": "cosmos-2251-debris",
        "lat": -63.73437057453233,
        "lon": 76.5212903350172,
        "alt_km": 1219.106077903346,
        "timestamp": "2025-12-26T03:50:12.487746+00:00",
        "meta_object_name": "COSMOS 2251 DEB",
        "meta_object_id": "1993-036JQ",
        "meta_epoch": "2025-12-25T17:41:26.482848",
        "meta_mean_motion": 13.49180156,
        "meta_eccentricity": 0.0422905,
        "meta_inclination": 73.8426,
        "meta_ra_of_asc_node": 221.2267,
        "meta_arg_of_pericenter": 7.6434,
        "meta_mean_anomaly": 353.0847,
        "meta_ephemeris_type": 0,
        "meta_classification_type": "U",
        "meta_norad_cat_id": 34053,
        "meta_element_set_no": 999,
        "meta_rev_at_epoch": 82859,
        "meta_bstar": 0.00055457,
        "meta_mean_motion_dot": 5.84e-06,
        "meta_mean_motion_ddot": 0,
        "tle_line1": "1 34053U 93036JQ  25359.73711207  .00000584  00000+0  55457-3 0  9993",
        "tle_line2": "2 34053  73.8426 221.2267 0422905   7.6434 353.0847 13.49180156828595"
      },
      "geometry": {
        "type": "Point",
        "coordinates": [
          76.5212903350172,
          -63.73437057453233
        ]
      }
    }
  ]
}